NORAD_CAT_ID,OBJECT_NAME,OBJECT_TYPE,EPOCH,MEAN_MOTION,ECCENTRICITY,INCLINATION,RA_OF_ASC_NODE,ARG_OF_PERICENTER,MEAN_ANOMALY,BSTAR,MEAN_MOTION_DOT,MEAN_MOTION_DDOT,TLE_LINE0,TLE_LINE1,TLE_LINE2,SEMIMAJOR_AXIS,PERIOD,APOGEE,PERIGEE,DECAYED
51775.0,STARLINK-3620,PAYLOAD,2023-11-06 01:01:49,15.08897875,0.000114,53.2159,215.7783,86.3894,273.7229,0.00083602,0.00013063,0.0,0 STARLINK-3620,1 51775U 22017H   23310.04292950  .00013063  00000-0  83602-3 0  9992,2 51775  53.2159 215.7783 0001140  86.3894 273.7229 15.08897875 95036,6917.703,95.434,540.357,538.78,0.0
51775.0,STARLINK-3620,PAYLOAD,2023-11-06 10:34:07,15.08878902,0.0002087,53.2172,213.9925,80.9233,279.1996,0.00044724,6.844e-05,0.0,0 STARLINK-3620,1 51775U 22017H   23310.44036728  .00006844  00000-0  44724-3 0  9996,2 51775  53.2172 213.9925 0002087  80.9233 279.1996 15.08878902 95094,6917.761,95.435,541.07,538.183,0.0
51775.0,STARLINK-3620,PAYLOAD,2023-11-06 21:41:51,15.0882919,9.17e-05,53.216,211.9134,69.0319,291.0771,-0.00063786,-0.00010422,0.0,0 STARLINK-3620,1 51775U 22017H   23310.90406287 -.00010422  00000-0 -63786-3 0  9996,2 51775  53.2160 211.9134 0000917  69.0319 291.0771 15.08829190 93710,6917.913,95.438,540.413,539.144,0.0
51775.0,STARLINK-3620,PAYLOAD,2023-11-07 02:28:01,15.08800775,0.0001197,53.2161,211.0212,83.0469,277.0659,-0.0011067,-0.00017839,0.0,0 STARLINK-3620,1 51775U 22017H   23311.10279581 -.00017839  00000-0 -11067-2 0  9997,2 51775  53.2161 211.0212 0001197  83.0469 277.0659 15.08800775 95193,6918.0,95.44,540.693,539.037,0.0
51775.0,STARLINK-3620,PAYLOAD,2023-11-07 10:24:57,15.08802963,0.0001133,53.217,209.5372,99.5647,260.5473,-0.000926,-0.0001498,0.0,0 STARLINK-3620,1 51775U 22017H   23311.43399761 -.00014980  00000-0 -92600-3 0  9993,2 51775  53.2170 209.5372 0001133  99.5647 260.5473 15.08802963 95240,6917.994,95.44,540.642,539.075,0.0
51775.0,STARLINK-3620,PAYLOAD,2023-11-08 02:18:49,15.08816687,0.0001324,53.2162,206.564,94.9504,265.1639,7.2471e-05,8.65e-06,0.0,0 STARLINK-3620,1 51775U 22017H   23312.09640984  .00000865  00000-0  72471-4 0  9992,2 51775  53.2162 206.5640 0001324  94.9504 265.1639 15.08816687 95343,6917.952,95.439,540.733,538.901,0.0
51775.0,STARLINK-3620,PAYLOAD,2023-11-08 22:58:51,15.08837075,7.08e-05,53.2163,202.6986,84.5619,275.5454,0.00086164,0.00013451,0.0,0 STARLINK-3620,1 51775U 22017H   23312.95753907  .00013451  00000-0  86164-3 0  9995,2 51775  53.2163 202.6986 0000708  84.5619 275.5454 15.08837075 94029,6917.889,95.438,540.244,539.265,0.0
51775.0,STARLINK-3620,PAYLOAD,2023-11-09 00:34:14,15.08842437,0.0001136,53.2165,202.4012,94.3772,265.735,0.0010108,0.00015837,0.0,0 STARLINK-3620,1 51775U 22017H   23313.02377893  .00015837  00000-0  10108-2 0  9994,2 51775  53.2165 202.4012 0001136  94.3772 265.7350 15.08842437 95489,6917.873,95.437,540.524,538.952,0.0
51775.0,STARLINK-3620,PAYLOAD,2023-11-09 22:49:38,15.08843403,9.39e-05,53.2169,198.2375,72.2006,287.9088,0.00030938,4.64e-05,0.0,0 STARLINK-3620,1 51775U 22017H   23313.95113828  .00004640  00000-0  30938-3 0  9996,2 51775  53.2169 198.2375 0000939  72.2006 287.9088 15.08843403 94175,6917.87,95.437,540.385,539.085,0.0
51775.0,STARLINK-3620,PAYLOAD,2023-11-10 02:00:24,15.08850507,0.0001375,53.2171,197.6389,97.0072,263.1077,0.00038327,5.819e-05,0.0,0 STARLINK-3620,1 51775U 22017H   23314.08361575  .00005819  00000-0  38327-3 0  9994,2 51775  53.2171 197.6389 0001375  97.0072 263.1077 15.08850507 95649,6917.848,95.437,540.664,538.762,0.0
51775.0,STARLINK-3620,PAYLOAD,2023-11-10 09:57:19,15.08847991,0.0001222,53.2169,196.154,99.8124,260.3006,0.00024216,3.569e-05,0.0,0 STARLINK-3620,1 51775U 22017H   23314.41481333  .00003569  00000-0  24216-3 0  9998,2 51775  53.2169 196.1540 0001222  99.8124 260.3006 15.08847991 94247,6917.856,95.437,540.566,538.876,0.0
51775.0,STARLINK-3620,PAYLOAD,2023-11-10 22:40:24,15.088523,0.0001403,53.2167,193.7751,96.3324,263.7828,0.00026192,3.884e-05,0.0,0 STARLINK-3620,1 51775U 22017H   23314.94472977  .00003884  00000-0  26192-3 0  9995,2 51775  53.2167 193.7751 0001403  96.3324 263.7828 15.08852300 94325,6917.843,95.437,540.678,538.737,0.0
51775.0,STARLINK-3620,PAYLOAD,2023-11-11 19:20:25,15.08844804,0.0001448,53.2163,189.9081,94.5275,265.5882,0.00010543,1.391e-05,0.0,0 STARLINK-3620,1 51775U 22017H   23315.80585262  .00001391  00000-0  10543-3 0  9997,2 51775  53.2163 189.9081 0001448  94.5275 265.5882 15.08844804 95903,6917.866,95.437,540.732,538.729,0.0
51775.0,STARLINK-3620,PAYLOAD,2023-11-11 22:31:12,15.08841328,0.0001452,53.2163,189.314,96.327,263.7887,-3.0225e-05,-7.69e-06,0.0,0 STARLINK-3620,1 51775U 22017H   23315.93833335 -.00000769  00000-0 -30225-4 0  9998,2 51775  53.2163 189.3140 0001452  96.3270 263.7887 15.08841328 94477,6917.876,95.437,540.746,538.737,0.0
51775.0,STARLINK-3620,PAYLOAD,2023-11-12 01:41:58,15.0883925,0.0001359,53.2163,188.7193,96.4787,263.636,4.5326e-05,4.34e-06,0.0,0 STARLINK-3620,1 51775U 22017H   23316.07081496  .00000434  00000-0  45326-4 0  9992,2 51775  53.2163 188.7193 0001359  96.4787 263.6360 15.08839250 94496,6917.883,95.438,540.688,538.808,0.0
51775.0,STARLINK-3620,PAYLOAD,2023-11-12 22:21:58,15.08847545,0.0001453,53.2159,184.8556,87.94,272.1758,0.00013423,1.849e-05,0.0,0 STARLINK-3620,1 51775U 22017H   23316.93193064  .00001849  00000-0  13423-3 0  9995,2 51775  53.2159 184.8556 0001453  87.9400 272.1758 15.08847545 94620,6917.857,95.437,540.727,538.717,0.0
51775.0,STARLINK-3620,PAYLOAD,2023-11-13 07:54:17,15.08845014,0.0001438,53.2157,183.0717,88.1425,271.9732,5.1545e-05,5.33e-06,0.0,0 STARLINK-3620,1 51775U 22017H   23317.32937051  .00000533  00000-0  51545-4 0  9998,2 51775  53.2157 183.0717 0001438  88.1425 271.9732 15.08845014 94685,6917.865,95.437,540.725,538.735,0.0
51775.0,STARLINK-3620,PAYLOAD,2023-11-13 14:15:50,15.0884129,0.0001472,53.2157,181.8832,93.1929,266.9232,0.00011346,1.518e-05,0.0,0 STARLINK-3620,1 51775U 22017H   23317.59433288  .00001518  00000-0  11346-3 0  9998,2 51775  53.2157 181.8832 0001472  93.1929 266.9232 15.08841290 96179,6917.876,95.437,540.76,538.723,0.0
51775.0,STARLINK-3620,PAYLOAD,2023-11-13 22:12:46,15.08840665,0.0001455,53.2159,180.3957,91.206,268.9099,6.1852e-05,6.97e-06,0.0,0 STARLINK-3620,1 51775U 22017H   23317.92553267  .00000697  00000-0  61852-4 0  9990,2 51775  53.2159 180.3957 0001455  91.2060 268.9099 15.08840665 94771,6917.878,95.438,540.75,538.737,0.0
51775.0,STARLINK-3620,PAYLOAD,2023-11-14 07:45:04,15.08838892,0.0001519,53.2162,178.6115,95.717,264.3995,5.0758e-05,5.2e-06,0.0,0 STARLINK-3620,1 51775U 22017H   23318.32297379  .00000520  00000-0  50758-4 0  9992,2 51775  53.2162 178.6115 0001519  95.7170 264.3995 15.08838892 94834,6917.884,95.438,540.8,538.698,0.0
51775.0,STARLINK-3620,PAYLOAD,2023-11-14 23:38:56,15.08842321,0.0001499,53.2172,175.6378,93.5473,266.5691,2.5895e-05,1.24e-06,0.0,0 STARLINK-3620,1 51775U 22017H   23318.98537545  .00000124  00000-0  25895-4 0  9990,2 51775  53.2172 175.6378 0001499  93.5473 266.5691 15.08842321 96383,6917.873,95.437,540.775,538.701,0.0
51775.0,STARLINK-3620,PAYLOAD,2023-11-15 23:29:43,15.08845613,0.000147,53.2194,171.1783,91.9417,268.1744,0.00011124,1.483e-05,0.0,0 STARLINK-3620,1 51775U 22017H   23319.97897222  .00001483  00000-0  11124-3 0  9999,2 51775  53.2194 171.1783 0001470  91.9417 268.1744 15.08845613 95087,6917.863,95.437,540.745,538.711,0.0
51775.0,STARLINK-3620,PAYLOAD,2023-11-16 20:09:44,15.08840867,0.0001485,53.2168,167.3114,88.995,271.1212,3.1977e-05,2.21e-06,0.0,0 STARLINK-3620,1 51775U 22017H   23320.84009478  .00000221  00000-0  31977-4 0  9993,2 51775  53.2168 167.3114 0001485  88.9950 271.1212 15.08840867 95212,6917.878,95.437,540.77,538.715,0.0
51775.0,STARLINK-3620,PAYLOAD,2023-11-17 07:17:26,15.08840843,0.0001466,53.2165,165.2297,87.1624,272.9536,3.8833e-05,3.3e-06,0.0,0 STARLINK-3620,1 51775U 22017H   23321.30377550  .00000330  00000-0  38833-4 0  9993,2 51775  53.2165 165.2297 0001466  87.1624 272.9536 15.08840843 95285,6917.878,95.438,540.757,538.729,0.0
51775.0,STARLINK-3620,PAYLOAD,2023-11-17 20:00:31,15.08842301,0.0001451,53.2164,162.8505,85.9936,274.1222,4.7384e-05,4.66e-06,0.0,0 STARLINK-3620,1 51775U 22017H   23321.83369381  .00000466  00000-0  47384-4 0  9995,2 51775  53.2164 162.8505 0001451  85.9936 274.1222 15.08842301 95361,6917.873,95.437,540.742,538.735,0.0
51775.0,STARLINK-3620,PAYLOAD,2023-11-17 23:11:17,15.08840849,0.0001453,53.2174,162.2535,96.3826,263.7331,8.0751e-05,9.97e-06,0.0,0 STARLINK-3620,1 51775U 22017H   23321.96617407  .00000997  00000-0  80751-4 0  9998,2 51775  53.2174 162.2535 0001453  96.3826 263.7331 15.08840849 96838,6917.878,95.438,540.748,538.738,0.0
51775.0,STARLINK-3620,PAYLOAD,2023-11-18 07:08:13,15.08840448,0.0001445,53.2165,160.7674,93.0824,267.0334,7.3274e-05,8.78e-06,0.0,0 STARLINK-3620,1 51775U 22017H   23322.29737515  .00000878  00000-0  73274-4 0  9998,2 51775  53.2165 160.7674 0001445  93.0824 267.0334 15.08840448 95438,6917.879,95.438,540.744,538.744,0.0
51775.0,STARLINK-3620,PAYLOAD,2023-11-18 19:51:18,15.08840019,0.0001451,53.2171,158.3888,91.5493,268.5666,6.4731e-05,7.42e-06,0.0,0 STARLINK-3620,1 51775U 22017H   23322.82729564  .00000742  00000-0  64731-4 0  9990,2 51775  53.2171 158.3888 0001451  91.5493 268.5666 15.08840019 95514,6917.88,95.438,540.749,538.742,0.0
51775.0,STARLINK-3620,PAYLOAD,2023-11-19 13:20:32,15.08839817,0.0001469,53.2163,155.1177,91.4,268.716,3.3187e-05,2.4e-06,0.0,0 STARLINK-3620,1 51775U 22017H   23323.55593673  .00000240  00000-0  33187-4 0  9995,2 51775  53.2163 155.1177 0001469  91.4000 268.7160 15.08839817 95620,6917.881,95.438,540.762,538.73,0.0
51775.0,STARLINK-3620,PAYLOAD,2023-11-19 19:42:05,15.08841517,0.0001444,53.2166,153.9285,89.6789,270.4369,4.6939e-05,4.59e-06,0.0,0 STARLINK-3620,1 51775U 22017H   23323.82089507  .00000459  00000-0  46939-4 0  9992,2 51775  53.2166 153.9285 0001444  89.6789 270.4369 15.08841517 97112,6917.876,95.437,540.74,538.742,0.0
